[{"OBJECT_NAME":"YAOGAN-43 01F","OBJECT_ID":"2024-148F","EPOCH":"2026-03-10T00:23:08.877408","MEAN_MOTION":15.29824616,"ECCENTRICITY":0.00057048,"INCLINATION":34.9925,"RA_OF_ASC_NODE":59.8891,"ARG_OF_PERICENTER":18.4862,"MEAN_ANOMALY":341.6062,"EPHEMERIS_TYPE":0,"CLASSIFICATION_TYPE":"U","NORAD_CAT_ID":60463,"ELEMENT_SET_NO":999,"REV_AT_EPOCH":8707,"BSTAR":0.00058388219,"MEAN_MOTION_DOT":0.00017308,"MEAN_MOTION_DDOT":0},{"OBJECT_NAME":"STARLINK-34513","OBJECT_ID":"2025-137R","EPOCH":"2026-03-09T03:38:19.039200","MEAN_MOTION":15.30208257,"ECCENTRICITY":0.00011775,"INCLINATION":53.1597,"RA_OF_ASC_NODE":337.6617,"ARG_OF_PERICENTER":4.5952,"MEAN_ANOMALY":355.5059,"EPHEMERIS_TYPE":0,"CLASSIFICATION_TYPE":"U","NORAD_CAT_ID":64609,"ELEMENT_SET_NO":999,"REV_AT_EPOCH":4074,"BSTAR":0.0012972677,"MEAN_MOTION_DOT":0.0003827,"MEAN_MOTION_DDOT":0}]
